[{"OBJECT_NAME":"STARLINK-6160","OBJECT_ID":"2023-061J","EPOCH":"2025-12-06T01:45:05.030496","MEAN_MOTION":15.0253494,"ECCENTRICITY":9.181e-5,"INCLINATION":43.0044,"RA_OF_ASC_NODE":346.0311,"ARG_OF_PERICENTER":267.4073,"MEAN_ANOMALY":92.6664,"EPHEMERIS_TYPE":0,"CLASSIFICATION_TYPE":"U","NORAD_CAT_ID":56382,"ELEMENT_SET_NO":999,"REV_AT_EPOCH":14267,"BSTAR":2.372516e-6,"MEAN_MOTION_DOT":-1.71e-6,"MEAN_MOTION_DDOT":0},{"OBJECT_NAME":"STARLINK-6166","OBJECT_ID":"2023-061K","EPOCH":"2025-12-06T01:48:17.227296","MEAN_MOTION":15.02529563,"ECCENTRICITY":0.00014563,"INCLINATION":43.0071,"RA_OF_ASC_NODE":346.0502,"ARG_OF_PERICENTER":258.3009,"MEAN_ANOMALY":101.767,"EPHEMERIS_TYPE":0,"CLASSIFICATION_TYPE":"U","NORAD_CAT_ID":56383,"ELEMENT_SET_NO":999,"REV_AT_EPOCH":14267,"BSTAR":-3.0701281e-5,"MEAN_MOTION_DOT":-6.18e-6,"MEAN_MOTION_DDOT":0},{"OBJECT_NAME":"STARLINK-6153","OBJECT_ID":"2023-061L","EPOCH":"2025-12-06T07:56:48.795648","MEAN_MOTION":15.02530456,"ECCENTRICITY":0.00014573,"INCLINATION":43.0049,"RA_OF_ASC_NODE":344.5301,"ARG_OF_PERICENTER":262.9962,"MEAN_ANOMALY":97.0714,"EPHEMERIS_TYPE":0,"CLASSIFICATION_TYPE":"U","NORAD_CAT_ID":56384,"ELEMENT_SET_NO":999,"REV_AT_EPOCH":14271,"BSTAR":-7.157126e-6,"MEAN_MOTION_DOT":-3.0e-6,"MEAN_MOTION_DDOT":0},{"OBJECT_NAME":"STARLINK-6173","OBJECT_ID":"2023-061M","EPOCH":"2025-12-06T01:38:41.636544","MEAN_MOTION":15.02530542,"ECCENTRICITY":0.00010386,"INCLINATION":43.0047,"RA_OF_ASC_NODE":345.9989,"ARG_OF_PERICENTER":265.61,"MEAN_ANOMALY":94.4624,"EPHEMERIS_TYPE":0,"CLASSIFICATION_TYPE":"U","NORAD_CAT_ID":56385,"ELEMENT_SET_NO":999,"REV_AT_EPOCH":14267,"BSTAR":-8.077798e-6,"MEAN_MOTION_DOT":-3.13e-6,"MEAN_MOTION_DDOT":0},{"OBJECT_NAME":"STARLINK-5836","OBJECT_ID":"2023-061N","EPOCH":"2025-12-06T09:22:55.488864","MEAN_MOTION":15.02608832,"ECCENTRICITY":0.00015233,"INCLINATION":43.0024,"RA_OF_ASC_NODE":344.1148,"ARG_OF_PERICENTER":263.5557,"MEAN_ANOMALY":96.5112,"EPHEMERIS_TYPE":0,"CLASSIFICATION_TYPE":"U","NORAD_CAT_ID":56386,"ELEMENT_SET_NO":999,"REV_AT_EPOCH":14272,"BSTAR":-0.0013579376,"MEAN_MOTION_DOT":-0.00018534,"MEAN_MOTION_DDOT":0},{"OBJECT_NAME":"STARLINK-6178","OBJECT_ID":"2023-061P","EPOCH":"2025-12-06T09:08:34.892160","MEAN_MOTION":15.02524018,"ECCENTRICITY":0.00011589,"INCLINATION":43.0044,"RA_OF_ASC_NODE":344.0445,"ARG_OF_PERICENTER":260.9857,"MEAN_ANOMALY":99.0855,"EPHEMERIS_TYPE":0,"CLASSIFICATION_TYPE":"U","NORAD_CAT_ID":56387,"ELEMENT_SET_NO":999,"REV_AT_EPOCH":14272,"BSTAR":0.00035181984,"MEAN_MOTION_DOT":4.55e-5,"MEAN_MOTION_DDOT":0},{"OBJECT_NAME":"STARLINK-6176","OBJECT_ID":"2023-061Q","EPOCH":"2025-12-06T10:06:05.808384","MEAN_MOTION":15.02535631,"ECCENTRICITY":0.00010384,"INCLINATION":43.0047,"RA_OF_ASC_NODE":344.3317,"ARG_OF_PERICENTER":260.4912,"MEAN_ANOMALY":99.5813,"EPHEMERIS_TYPE":0,"CLASSIFICATION_TYPE":"U","NORAD_CAT_ID":56388,"ELEMENT_SET_NO":999,"REV_AT_EPOCH":14272,"BSTAR":4.3493853e-5,"MEAN_MOTION_DOT":3.84e-6,"MEAN_MOTION_DDOT":0},{"OBJECT_NAME":"STARLINK-6145","OBJECT_ID":"2023-061R","EPOCH":"2025-12-06T07:52:00.876288","MEAN_MOTION":15.02528997,"ECCENTRICITY":0.0001193,"INCLINATION":43.0057,"RA_OF_ASC_NODE":344.502,"ARG_OF_PERICENTER":273.3514,"MEAN_ANOMALY":86.7192,"EPHEMERIS_TYPE":0,"CLASSIFICATION_TYPE":"U","NORAD_CAT_ID":56389,"ELEMENT_SET_NO":999,"REV_AT_EPOCH":14271,"BSTAR":-8.6684794e-5,"MEAN_MOTION_DOT":-1.374e-5,"MEAN_MOTION_DDOT":0},{"OBJECT_NAME":"STARLINK-6298","OBJECT_ID":"2023-061T","EPOCH":"2025-12-06T07:42:25.162848","MEAN_MOTION":15.02539254,"ECCENTRICITY":0.00010187,"INCLINATION":43.0035,"RA_OF_ASC_NODE":344.4495,"ARG_OF_PERICENTER":263.0867,"MEAN_ANOMALY":96.986,"EPHEMERIS_TYPE":0,"CLASSIFICATION_TYPE":"U","NORAD_CAT_ID":56391,"ELEMENT_SET_NO":999,"REV_AT_EPOCH":14271,"BSTAR":7.9682601e-5,"MEAN_MOTION_DOT":8.73e-6,"MEAN_MOTION_DDOT":0},{"OBJECT_NAME":"STARLINK-6301","OBJECT_ID":"2023-061U","EPOCH":"2025-12-06T07:46:10.305696","MEAN_MOTION":15.02527375,"ECCENTRICITY":9.968e-5,"INCLINATION":43.0064,"RA_OF_ASC_NODE":332.3388,"ARG_OF_PERICENTER":266.3854,"MEAN_ANOMALY":93.6875,"EPHEMERIS_TYPE":0,"CLASSIFICATION_TYPE":"U","NORAD_CAT_ID":56392,"ELEMENT_SET_NO":999,"REV_AT_EPOCH":14285,"BSTAR":0.00024444093,"MEAN_MOTION_DOT":3.099e-5,"MEAN_MOTION_DDOT":0},{"OBJECT_NAME":"STARLINK-6303","OBJECT_ID":"2023-061V","EPOCH":"2025-12-06T09:13:21.690048","MEAN_MOTION":15.02531773,"ECCENTRICITY":0.00014458,"INCLINATION":43.0033,"RA_OF_ASC_NODE":344.0643,"ARG_OF_PERICENTER":269.4923,"MEAN_ANOMALY":90.5753,"EPHEMERIS_TYPE":0,"CLASSIFICATION_TYPE":"U","NORAD_CAT_ID":56393,"ELEMENT_SET_NO":999,"REV_AT_EPOCH":14272,"BSTAR":0.00037943487,"MEAN_MOTION_DOT":4.925e-5,"MEAN_MOTION_DDOT":0},{"OBJECT_NAME":"STARLINK-6305","OBJECT_ID":"2023-061W","EPOCH":"2025-12-06T09:05:55.344192","MEAN_MOTION":15.02538745,"ECCENTRICITY":0.00011915,"INCLINATION":43.004,"RA_OF_ASC_NODE":331.894,"ARG_OF_PERICENTER":257.5892,"MEAN_ANOMALY":102.4817,"EPHEMERIS_TYPE":0,"CLASSIFICATION_TYPE":"U","NORAD_CAT_ID":56394,"ELEMENT_SET_NO":999,"REV_AT_EPOCH":14286,"BSTAR":-9.1194653e-5,"MEAN_MOTION_DOT":-1.435e-5,"MEAN_MOTION_DDOT":0},{"OBJECT_NAME":"STARLINK-6273","OBJECT_ID":"2023-061X","EPOCH":"2025-12-06T09:10:42.377952","MEAN_MOTION":15.02545396,"ECCENTRICITY":0.00013271,"INCLINATION":43.004,"RA_OF_ASC_NODE":331.9174,"ARG_OF_PERICENTER":266.1558,"MEAN_ANOMALY":93.9133,"EPHEMERIS_TYPE":0,"CLASSIFICATION_TYPE":"U","NORAD_CAT_ID":56395,"ELEMENT_SET_NO":999,"REV_AT_EPOCH":14357,"BSTAR":-5.388255e-6,"MEAN_MOTION_DOT":-2.76e-6,"MEAN_MOTION_DDOT":0},{"OBJECT_NAME":"STARLINK-6302","OBJECT_ID":"2023-061Y","EPOCH":"2025-12-06T00:59:16.369152","MEAN_MOTION":15.02535094,"ECCENTRICITY":0.00011179,"INCLINATION":43.0035,"RA_OF_ASC_NODE":333.6616,"ARG_OF_PERICENTER":270.8724,"MEAN_ANOMALY":89.199,"EPHEMERIS_TYPE":0,"CLASSIFICATION_TYPE":"U","NORAD_CAT_ID":56396,"ELEMENT_SET_NO":999,"REV_AT_EPOCH":13794,"BSTAR":4.882426e-5,"MEAN_MOTION_DOT":4.56e-6,"MEAN_MOTION_DDOT":0},{"OBJECT_NAME":"STARLINK-6271","OBJECT_ID":"2023-061Z","EPOCH":"2025-12-06T09:13:53.661504","MEAN_MOTION":15.02538512,"ECCENTRICITY":0.00013074,"INCLINATION":43.0049,"RA_OF_ASC_NODE":331.9391,"ARG_OF_PERICENTER":277.9828,"MEAN_ANOMALY":82.0866,"EPHEMERIS_TYPE":0,"CLASSIFICATION_TYPE":"U","NORAD_CAT_ID":56397,"ELEMENT_SET_NO":999,"REV_AT_EPOCH":14286,"BSTAR":3.6114068e-5,"MEAN_MOTION_DOT":2.84e-6,"MEAN_MOTION_DDOT":0},{"OBJECT_NAME":"STARLINK-6288","OBJECT_ID":"2023-061AA","EPOCH":"2025-12-06T00:54:29.353536","MEAN_MOTION":15.02537948,"ECCENTRICITY":8.279e-5,"INCLINATION":43.0013,"RA_OF_ASC_NODE":333.6341,"ARG_OF_PERICENTER":248.0469,"MEAN_ANOMALY":112.0285,"EPHEMERIS_TYPE":0,"CLASSIFICATION_TYPE":"U","NORAD_CAT_ID":56398,"ELEMENT_SET_NO":999,"REV_AT_EPOCH":14281,"BSTAR":5.7959827e-5,"MEAN_MOTION_DOT":5.8e-6,"MEAN_MOTION_DDOT":0}]
