[{"norad_id":"56382","company":"STARLINK","tle_line2":"2 56382  43.0044 346.0311 0000918 267.4073  92.6664 15.02534940142672","launch_date":"2023-05-04","type":"LEO","tle_line1":"1 56382U 23061J   25340.07297489 -.00000171  00000+0  23725-5 0  9999","satellite_name":"STARLINK-6160"},{"norad_id":"56383","company":"STARLINK","tle_line2":"2 56383  43.0071 346.0502 0001456 258.3009 101.7670 15.02529563142675","launch_date":"2023-05-04","type":"LEO","tle_line1":"1 56383U 23061K   25340.07519939 -.00000618  00000+0 -30701-4 0  9995","satellite_name":"STARLINK-6166"},{"norad_id":"56384","company":"STARLINK","tle_line2":"2 56384  43.0049 344.5301 0001457 262.9962  97.0714 15.02530456142715","launch_date":"2023-05-04","type":"LEO","tle_line1":"1 56384U 23061L   25340.33112032 -.00000300  00000+0 -71571-5 0  9997","satellite_name":"STARLINK-6153"},{"norad_id":"56385","company":"STARLINK","tle_line2":"2 56385  43.0047 345.9989 0001038 265.6100  94.4624 15.02530542142672","launch_date":"2023-05-04","type":"LEO","tle_line1":"1 56385U 23061M   25340.06853746 -.00000313  00000+0 -80778-5 0  9995","satellite_name":"STARLINK-6173"},{"norad_id":"56386","company":"STARLINK","tle_line2":"2 56386  43.0024 344.1148 0001523 263.5557  96.5112 15.02608832142727","launch_date":"2023-05-04","type":"LEO","tle_line1":"1 56386U 23061N   25340.39092001 -.00018534  00000+0 -13579-2 0  9997","satellite_name":"STARLINK-5836"},{"norad_id":"56387","company":"STARLINK","tle_line2":"2 56387  43.0044 344.0445 0001158 260.9857  99.0855 15.02524018142722","launch_date":"2023-05-04","type":"LEO","tle_line1":"1 56387U 23061P   25340.38095940  .00004550  00000+0  35182-3 0  9998","satellite_name":"STARLINK-6178"},{"norad_id":"56388","company":"STARLINK","tle_line2":"2 56388  43.0047 344.3317 0001038 260.4912  99.5813 15.02535631142723","launch_date":"2023-05-04","type":"LEO","tle_line1":"1 56388U 23061Q   25340.42090056  .00000384  00000+0  43494-4 0  9994","satellite_name":"STARLINK-6176"},{"norad_id":"56389","company":"STARLINK","tle_line2":"2 56389  43.0057 344.5020 0001193 273.3514  86.7192 15.02528997142715","launch_date":"2023-05-04","type":"LEO","tle_line1":"1 56389U 23061R   25340.32778792 -.00001374  00000+0 -86685-4 0  9995","satellite_name":"STARLINK-6145"},{"norad_id":"56391","company":"STARLINK","tle_line2":"2 56391  43.0035 344.4495 0001018 263.0867  96.9860 15.02539254142715","launch_date":"2023-05-04","type":"LEO","tle_line1":"1 56391U 23061T   25340.32112457  .00000873  00000+0  79683-4 0  9999","satellite_name":"STARLINK-6298"},{"norad_id":"56392","company":"STARLINK","tle_line2":"2 56392  43.0064 332.3388 0000996 266.3854  93.6875 15.02527375142857","launch_date":"2023-05-04","type":"LEO","tle_line1":"1 56392U 23061U   25340.32373039  .00003099  00000+0  24444-3 0  9992","satellite_name":"STARLINK-6301"},{"norad_id":"56393","company":"STARLINK","tle_line2":"2 56393  43.0033 344.0643 0001445 269.4923  90.5753 15.02531773142723","launch_date":"2023-05-04","type":"LEO","tle_line1":"1 56393U 23061V   25340.38427882  .00004925  00000+0  37943-3 0  9992","satellite_name":"STARLINK-6303"},{"norad_id":"56394","company":"STARLINK","tle_line2":"2 56394  43.0040 331.8940 0001191 257.5892 102.4817 15.02538745142862","launch_date":"2023-05-04","type":"LEO","tle_line1":"1 56394U 23061W   25340.37911278 -.00001435  00000+0 -91195-4 0  9994","satellite_name":"STARLINK-6305"},{"norad_id":"56395","company":"STARLINK","tle_line2":"2 56395  43.0040 331.9174 0001327 266.1558  93.9133 15.02545396143573","launch_date":"2023-05-04","type":"LEO","tle_line1":"1 56395U 23061X   25340.38243493 -.00000276  00000+0 -53883-5 0  9998","satellite_name":"STARLINK-6273"},{"norad_id":"56396","company":"STARLINK","tle_line2":"2 56396  43.0035 333.6616 0001117 270.8724  89.1990 15.02535094137948","launch_date":"2023-05-04","type":"LEO","tle_line1":"1 56396U 23061Y   25340.04116168  .00000456  00000+0  48824-4 0  9996","satellite_name":"STARLINK-6302"},{"norad_id":"56397","company":"STARLINK","tle_line2":"2 56397  43.0049 331.9391 0001307 277.9828  82.0866 15.02538512142868","launch_date":"2023-05-04","type":"LEO","tle_line1":"1 56397U 23061Z   25340.38464886  .00000284  00000+0  36114-4 0  9995","satellite_name":"STARLINK-6271"},{"norad_id":"56398","company":"STARLINK","tle_line2":"2 56398  43.0013 333.6341 0000827 248.0469 112.0285 15.02537948142816","launch_date":"2023-05-04","type":"LEO","tle_line1":"1 56398U 23061AA  25340.03783974  .00000580  00000+0  57960-4 0  9991","satellite_name":"STARLINK-6288"}]